[Satellite]
VERSION=1.1
NAME=COSMOS 2442 (724)
NICKNAME=COSMOS 2442 (724)
TLE1=1 33378U 08046A   11059.49677155 -.00000030  00000-0  10000-3 0  6830
TLE2=2 33378  64.7961 142.5304 0026363 335.0983  99.7754  2.13102150 18880
